[{"OBJECT_NAME":"FALCONSAT-10","OBJECT_ID":"2023-174AM","EPOCH":"2026-03-09T16:51:34.085376","MEAN_MOTION":15.26670596,"ECCENTRICITY":0.00089318,"INCLINATION":97.3865,"RA_OF_ASC_NODE":145.7938,"ARG_OF_PERICENTER":169.5942,"MEAN_ANOMALY":190.5483,"EPHEMERIS_TYPE":0,"CLASSIFICATION_TYPE":"U","NORAD_CAT_ID":58291,"ELEMENT_SET_NO":999,"REV_AT_EPOCH":12958,"BSTAR":0.00025968794,"MEAN_MOTION_DOT":6.748e-5,"MEAN_MOTION_DDOT":0},{"OBJECT_NAME":"STARLINK-35620","OBJECT_ID":"2025-262U","EPOCH":"2026-03-09T00:08:35.179872","MEAN_MOTION":15.27603895,"ECCENTRICITY":0.00019058,"INCLINATION":43.0018,"RA_OF_ASC_NODE":299.872,"ARG_OF_PERICENTER":260.8885,"MEAN_ANOMALY":99.1751,"EPHEMERIS_TYPE":0,"CLASSIFICATION_TYPE":"U","NORAD_CAT_ID":66474,"ELEMENT_SET_NO":999,"REV_AT_EPOCH":1880,"BSTAR":0.0011812188,"MEAN_MOTION_DOT":0.0003241,"MEAN_MOTION_DDOT":0}]
